{
  "norad_id": 25504,
  "name": "SCD 2",
  "history": [
    {
      "epoch": "2026-03-28T15:47:46.930848Z",
      "apogee_km": 752.3534547289892,
      "perigee_km": 728.4650372367196,
      "latitude_deg": 9.484455830763993,
      "longitude_deg": 166.630979131226,
      "height_km": 727.3355524908924,
      "semi_major_axis_km": 7118.546245982854,
      "eccentricity": 0.0016779,
      "inclination_deg": 24.9946,
      "raan_deg": 208.7705,
      "arg_perigee_deg": 353.0159,
      "mean_anomaly_deg": 29.759,
      "mean_motion_rev_day": 14.45492344
    },
    {
      "epoch": "2026-03-29T00:43:00.305760Z",
      "apogee_km": 752.3688868409445,
      "perigee_km": 728.4477271912474,
      "latitude_deg": 7.967596817130477,
      "longitude_deg": 171.9103354046341,
      "height_km": 749.2341473000453,
      "semi_major_axis_km": 7118.545307016096,
      "eccentricity": 0.0016802,
      "inclination_deg": 24.9946,
      "raan_deg": 206.4784,
      "arg_perigee_deg": 356.9692,
      "mean_anomaly_deg": 163.8858,
      "mean_motion_rev_day": 14.4549263
    },
    {
      "epoch": "2026-03-29T08:25:40.179072Z",
      "apogee_km": 752.3750512790075,
      "perigee_km": 728.4388049498439,
      "latitude_deg": 14.55114608363986,
      "longitude_deg": -75.05066493039763,
      "height_km": 728.0113444692197,
      "semi_major_axis_km": 7118.543928114425,
      "eccentricity": 0.00168126,
      "inclination_deg": 24.9946,
      "raan_deg": 204.497,
      "arg_perigee_deg": 0.3701,
      "mean_anomaly_deg": 35.8262,
      "mean_motion_rev_day": 14.4549305
    },
    {
      "epoch": "2026-03-30T14:42:08.945856Z",
      "apogee_km": 752.4134988221704,
      "perigee_km": 728.3952554740172,
      "latitude_deg": 17.78446436612832,
      "longitude_deg": -75.00796823543196,
      "height_km": 743.8924448378772,
      "semi_major_axis_km": 7118.5413771480935,
      "eccentricity": 0.00168702,
      "inclination_deg": 24.9945,
      "raan_deg": 196.7178,
      "arg_perigee_deg": 13.653,
      "mean_anomaly_deg": 120.1469,
      "mean_motion_rev_day": 14.45493827
    },
    {
      "epoch": "2026-03-31T15:35:19.900032Z",
      "apogee_km": 752.4344206189853,
      "perigee_km": 728.3694878303331,
      "latitude_deg": 15.522480441828122,
      "longitude_deg": -88.8754501290352,
      "height_km": 743.0753249787894,
      "semi_major_axis_km": 7118.538954224659,
      "eccentricity": 0.0016903,
      "inclination_deg": 24.9943,
      "raan_deg": 190.323,
      "arg_perigee_deg": 24.4424,
      "mean_anomaly_deg": 116.2824,
      "mean_motion_rev_day": 14.45494565
    },
    {
      "epoch": "2026-04-01T14:14:38.074272Z",
      "apogee_km": 752.4630951028648,
      "perigee_km": 728.3383707260173,
      "latitude_deg": 9.465886299177578,
      "longitude_deg": 161.7270537998476,
      "height_km": 725.8730882012538,
      "semi_major_axis_km": 7118.537732914441,
      "eccentricity": 0.0016945,
      "inclination_deg": 24.9941,
      "raan_deg": 184.5016,
      "arg_perigee_deg": 34.3751,
      "mean_anomaly_deg": 348.4879,
      "mean_motion_rev_day": 14.45494937
    },
    {
      "epoch": "2026-04-02T13:26:28.709664Z",
      "apogee_km": 752.4802421324075,
      "perigee_km": 728.3169425470578,
      "latitude_deg": 9.44277828194441,
      "longitude_deg": 166.79839489091677,
      "height_km": 726.4639342761034,
      "semi_major_axis_km": 7118.535592339733,
      "eccentricity": 0.00169721,
      "inclination_deg": 24.9941,
      "raan_deg": 178.5408,
      "arg_perigee_deg": 44.4913,
      "mean_anomaly_deg": 338.3466,
      "mean_motion_rev_day": 14.45495589
    },
    {
      "epoch": "2026-04-02T22:21:05.645376Z",
      "apogee_km": 752.4897086712854,
      "perigee_km": 728.3029256489044,
      "latitude_deg": 8.774783204075293,
      "longitude_deg": 170.4761294933421,
      "height_km": 741.9296976966733,
      "semi_major_axis_km": 7118.533317160094,
      "eccentricity": 0.00169886,
      "inclination_deg": 24.9941,
      "raan_deg": 176.2512,
      "arg_perigee_deg": 48.3556,
      "mean_anomaly_deg": 110.369,
      "mean_motion_rev_day": 14.45496282
    },
    {
      "epoch": "2026-04-03T12:38:21.475680Z",
      "apogee_km": 752.4925551778024,
      "perigee_km": 728.2959555876296,
      "latitude_deg": 9.473331838015701,
      "longitude_deg": 171.98662445551977,
      "height_km": 727.3905329943876,
      "semi_major_axis_km": 7118.531255382715,
      "eccentricity": 0.00169955,
      "inclination_deg": 24.9941,
      "raan_deg": 172.5799,
      "arg_perigee_deg": 54.5859,
      "mean_anomaly_deg": 328.3594,
      "mean_motion_rev_day": 14.4549691
    },
    {
      "epoch": "2026-04-04T12:20:24.478944Z",
      "apogee_km": 752.5011319311334,
      "perigee_km": 728.2840366559585,
      "latitude_deg": 18.237724071761498,
      "longitude_deg": -76.11708174995809,
      "height_km": 733.2372582802134,
      "semi_major_axis_km": 7118.529584293546,
      "eccentricity": 0.00170099,
      "inclination_deg": 24.9941,
      "raan_deg": 166.4899,
      "arg_perigee_deg": 64.8702,
      "mean_anomaly_deg": 67.434,
      "mean_motion_rev_day": 14.45497419
    },
    {
      "epoch": "2026-04-05T06:11:35.273760Z",
      "apogee_km": 752.5065080890326,
      "perigee_km": 728.276460833622,
      "latitude_deg": 19.275524786721885,
      "longitude_deg": -76.30305159671177,
      "height_km": 726.6690192572827,
      "semi_major_axis_km": 7118.528484461327,
      "eccentricity": 0.0017019,
      "inclination_deg": 24.9941,
      "raan_deg": 161.9025,
      "arg_perigee_deg": 72.6093,
      "mean_anomaly_deg": 338.5263,
      "mean_motion_rev_day": 14.45497754
    },
    {
      "epoch": "2026-04-06T05:22:12.834624Z",
      "apogee_km": 752.5103558449173,
      "perigee_km": 728.2690673517745,
      "latitude_deg": 17.95759316900343,
      "longitude_deg": -75.37566954282649,
      "height_km": 728.042503926996,
      "semi_major_axis_km": 7118.526711598346,
      "eccentricity": 0.00170269,
      "inclination_deg": 24.9941,
      "raan_deg": 155.9471,
      "arg_perigee_deg": 82.662,
      "mean_anomaly_deg": 324.0478,
      "mean_motion_rev_day": 14.45498294
    },
    {
      "epoch": "2026-04-07T11:05:15.436608Z",
      "apogee_km": 752.5107141488115,
      "perigee_km": 728.2645920688428,
      "latitude_deg": 9.56604186260085,
      "longitude_deg": 167.3321346042954,
      "height_km": 734.0095257385395,
      "semi_major_axis_km": 7118.524653108827,
      "eccentricity": 0.00170303,
      "inclination_deg": 24.9941,
      "raan_deg": 148.3112,
      "arg_perigee_deg": 95.5764,
      "mean_anomaly_deg": 287.6864,
      "mean_motion_rev_day": 14.45498921
    },
    {
      "epoch": "2026-04-07T20:00:22.657248Z",
      "apogee_km": 752.5085671448578,
      "perigee_km": 728.2657213192624,
      "latitude_deg": 7.868906709853195,
      "longitude_deg": 172.67001951982058,
      "height_km": 731.9723021468586,
      "semi_major_axis_km": 7118.52414423206,
      "eccentricity": 0.0017028,
      "inclination_deg": 24.9941,
      "raan_deg": 146.0196,
      "arg_perigee_deg": 99.4268,
      "mean_anomaly_deg": 61.5529,
      "mean_motion_rev_day": 14.45499076
    },
    {
      "epoch": "2026-04-08T12:30:00.112032Z",
      "apogee_km": 752.5034825651101,
      "perigee_km": 728.2690396046073,
      "latitude_deg": 14.222048106263887,
      "longitude_deg": -95.23610536636262,
      "height_km": 728.1224305241791,
      "semi_major_axis_km": 7118.523261084859,
      "eccentricity": 0.00170221,
      "inclination_deg": 24.9941,
      "raan_deg": 141.7815,
      "arg_perigee_deg": 106.6136,
      "mean_anomaly_deg": 37.8821,
      "mean_motion_rev_day": 14.45499345
    },
    {
      "epoch": "2026-04-09T04:38:55.569408Z",
      "apogee_km": 752.497111784317,
      "perigee_km": 728.272639471118,
      "latitude_deg": 19.780963593230076,
      "longitude_deg": -79.42917917109108,
      "height_km": 732.0378991652615,
      "semi_major_axis_km": 7118.521875627717,
      "eccentricity": 0.00170151,
      "inclination_deg": 24.994,
      "raan_deg": 137.6319,
      "arg_perigee_deg": 113.6394,
      "mean_anomaly_deg": 299.4167,
      "mean_motion_rev_day": 14.45499767
    },
    {
      "epoch": "2026-04-10T03:48:37.436832Z",
      "apogee_km": 752.4810609833867,
      "perigee_km": 728.2860638142593,
      "latitude_deg": 17.488397846785656,
      "longitude_deg": -81.63155218019439,
      "height_km": 735.4037077739214,
      "semi_major_axis_km": 7118.520562398822,
      "eccentricity": 0.00169944,
      "inclination_deg": 24.994,
      "raan_deg": 131.6802,
      "arg_perigee_deg": 123.7059,
      "mean_anomaly_deg": 281.5699,
      "mean_motion_rev_day": 14.45500167
    },
    {
      "epoch": "2026-04-11T18:27:08.709120Z",
      "apogee_km": 752.4342424963033,
      "perigee_km": 728.3295138709982,
      "latitude_deg": 7.9636328470644475,
      "longitude_deg": 167.61491923577995,
      "height_km": 726.4244593934413,
      "semi_major_axis_km": 7118.5188781836505,
      "eccentricity": 0.0016931,
      "inclination_deg": 24.9941,
      "raan_deg": 121.7508,
      "arg_perigee_deg": 140.5106,
      "mean_anomaly_deg": 20.3399,
      "mean_motion_rev_day": 14.4550068
    },
    {
      "epoch": "2026-04-13T06:38:01.906080Z",
      "apogee_km": 752.395976526218,
      "perigee_km": 728.3652847087797,
      "latitude_deg": 24.55855688786996,
      "longitude_deg": -85.67599533723002,
      "height_km": 731.4914574391057,
      "semi_major_axis_km": 7118.517630617498,
      "eccentricity": 0.0016879,
      "inclination_deg": 24.9942,
      "raan_deg": 112.4533,
      "arg_perigee_deg": 156.3479,
      "mean_anomaly_deg": 305.4809,
      "mean_motion_rev_day": 14.4550106
    },
    {
      "epoch": "2026-04-14T17:42:26.294112Z",
      "apogee_km": 752.3442347172995,
      "perigee_km": 728.4146298784872,
      "latitude_deg": 7.504874645601641,
      "longitude_deg": 158.5972918230553,
      "height_km": 725.9454606383185,
      "semi_major_axis_km": 7118.5164322978935,
      "eccentricity": 0.0016808,
      "inclination_deg": 24.9945,
      "raan_deg": 103.4409,
      "arg_perigee_deg": 171.7182,
      "mean_anomaly_deg": 350.3606,
      "mean_motion_rev_day": 14.45501425
    },
    {
      "epoch": "2026-04-15T16:53:59.862912Z",
      "apogee_km": 752.312809531204,
      "perigee_km": 728.4444266637229,
      "latitude_deg": 7.940123759853882,
      "longitude_deg": 162.80753473110568,
      "height_km": 726.5723991867401,
      "semi_major_axis_km": 7118.515618097463,
      "eccentricity": 0.0016765,
      "inclination_deg": 24.9946,
      "raan_deg": 97.4814,
      "arg_perigee_deg": 181.9214,
      "mean_anomaly_deg": 339.1236,
      "mean_motion_rev_day": 14.45501673
    },
    {
      "epoch": "2026-04-16T16:05:52.120032Z",
      "apogee_km": 752.2818824477499,
      "perigee_km": 728.4732985483697,
      "latitude_deg": 7.914101857814451,
      "longitude_deg": 167.98581554903646,
      "height_km": 727.5234638885473,
      "semi_major_axis_km": 7118.514590498059,
      "eccentricity": 0.0016723,
      "inclination_deg": 24.9948,
      "raan_deg": 91.5207,
      "arg_perigee_deg": 192.1562,
      "mean_anomaly_deg": 328.9834,
      "mean_motion_rev_day": 14.45501986
    }
  ]
}